STARLINK-4681
1 53594U 22104G   26092.83335647  .00097701  00000+0  32416-2 0  9994
2 53594  53.2170 134.0302 0001398  81.3138 300.0437 15.30460868  5850
